{"type": "FeatureCollection", "features": [ {"type": "Feature", "properties": {"norad_id": 66946, "name": "STARLINK-36115", "group": "last-30-days", "lat": 12.500368568070082, "lon": 38.616913838533996, "alt_km": 307.8397536338207, "timestamp": "2025-12-16T23:36:34.925976+00:00", "meta": {"OBJECT_NAME": "STARLINK-36115", "OBJECT_ID": "2025-286X", "EPOCH": "2025-12-16T06:00:02.999808", "MEAN_MOTION": 15.89797423, "ECCENTRICITY": 8.206e-05, "INCLINATION": 53.1559, "RA_OF_ASC_NODE": 32.7686, "ARG_OF_PERICENTER": 90.8019, "MEAN_ANOMALY": 46.194, "EPHEMERIS_TYPE": 0, "CLASSIFICATION_TYPE": "U", "NORAD_CAT_ID": 66946, "ELEMENT_SET_NO": 999, "REV_AT_EPOCH": 255, "BSTAR": -0.0050058675, "MEAN_MOTION_DOT": -0.0133967, "MEAN_MOTION_DDOT": 0}, "tle": {"line1": "1 66946U 25286X   25350.25003472 -.01339670  00000+0 -50059-2 0  9993", "line2": "2 66946  53.1559  32.7686 0000820  90.8019  46.1940 15.89797423  2551"}}, "geometry": {"type": "Point", "coordinates": [38.616913838533996, 12.500368568070082]}}, {"type": "Feature", "properties": {"norad_id": 66947, "name": "STARLINK-36089", "group": "last-30-days", "lat": 16.003965997993696, "lon": 41.457916761322934, "alt_km": 307.01236351212356, "timestamp": "2025-12-16T23:36:34.925988+00:00", "meta": {"OBJECT_NAME": "STARLINK-36089", "OBJECT_ID": "2025-286Y", "EPOCH": "2025-12-16T06:00:02.999808", "MEAN_MOTION": 15.8989015, "ECCENTRICITY": 9.087e-05, "INCLINATION": 53.1559, "RA_OF_ASC_NODE": 32.7597, "ARG_OF_PERICENTER": 84.8573, "MEAN_ANOMALY": 56.3897, "EPHEMERIS_TYPE": 0, "CLASSIFICATION_TYPE": "U", "NORAD_CAT_ID": 66947, "ELEMENT_SET_NO": 999, "REV_AT_EPOCH": 255, "BSTAR": -0.0050505852, "MEAN_MOTION_DOT": -0.01355892, "MEAN_MOTION_DDOT": 0}, "tle": {"line1": "1 66947U 25286Y   25350.25003472 -.01355892  00000+0 -50506-2 0  9995", "line2": "2 66947  53.1559  32.7597 0000908  84.8573  56.3897 15.89890150  2553"}}, "geometry": {"type": "Point", "coordinates": [41.457916761322934, 16.003965997993696]}}, {"type": "Feature", "properties": {"norad_id": 66948, "name": "STARLINK-36116", "group": "last-30-days", "lat": 14.472004543562973, "lon": 40.201307958306245, "alt_km": 307.4517411331126, "timestamp": "2025-12-16T23:36:34.925999+00:00", "meta": {"OBJECT_NAME": "STARLINK-36116", "OBJECT_ID": "2025-286Z", "EPOCH": "2025-12-16T06:00:02.999808", "MEAN_MOTION": 15.89846574, "ECCENTRICITY": 8.108e-05, "INCLINATION": 53.156, "RA_OF_ASC_NODE": 32.7636, "ARG_OF_PERICENTER": 92.3145, "MEAN_ANOMALY": 47.083, "EPHEMERIS_TYPE": 0, "CLASSIFICATION_TYPE": "U", "NORAD_CAT_ID": 66948, "ELEMENT_SET_NO": 999, "REV_AT_EPOCH": 255, "BSTAR": -0.0050445903, "MEAN_MOTION_DOT": -0.01351752, "MEAN_MOTION_DDOT": 0}, "tle": {"line1": "1 66948U 25286Z   25350.25003472 -.01351752  00000+0 -50446-2 0  9990", "line2": "2 66948  53.1560  32.7636 0000810  92.3145  47.0830 15.89846574  2556"}}, "geometry": {"type": "Point", "coordinates": [40.201307958306245, 14.472004543562973]}}, {"type": "Feature", "properties": {"norad_id": 66949, "name": "STARLINK-36096", "group": "last-30-days", "lat": 17.564736357071375, "lon": 42.76464297455024, "alt_km": 306.64021980068355, "timestamp": "2025-12-16T23:36:34.926011+00:00", "meta": {"OBJECT_NAME": "STARLINK-36096", "OBJECT_ID": "2025-286AA", "EPOCH": "2025-12-16T06:00:02.999808", "MEAN_MOTION": 15.899348, "ECCENTRICITY": 8.724e-05, "INCLINATION": 53.1561, "RA_OF_ASC_NODE": 32.7558, "ARG_OF_PERICENTER": 82.7261, "MEAN_ANOMALY": 60.4136, "EPHEMERIS_TYPE": 0, "CLASSIFICATION_TYPE": "U", "NORAD_CAT_ID": 66949, "ELEMENT_SET_NO": 999, "REV_AT_EPOCH": 255, "BSTAR": -0.0050578257, "MEAN_MOTION_DOT": -0.01360306, "MEAN_MOTION_DDOT": 0}, "tle": {"line1": "1 66949U 25286AA  25350.25003472 -.01360306  00000+0 -50578-2 0  9992", "line2": "2 66949  53.1561  32.7558 0000872  82.7261  60.4136 15.89934800  2559"}}, "geometry": {"type": "Point", "coordinates": [42.76464297455024, 17.564736357071375]}}, {"type": "Feature", "properties": {"norad_id": 66950, "name": "STARLINK-36111", "group": "last-30-days", "lat": 20.793306496268425, "lon": 45.56860475327191, "alt_km": 305.943658979857, "timestamp": "2025-12-16T23:36:34.926021+00:00", "meta": {"OBJECT_NAME": "STARLINK-36111", "OBJECT_ID": "2025-286AB", "EPOCH": "2025-12-16T06:00:02.999808", "MEAN_MOTION": 15.9002195, "ECCENTRICITY": 8.706e-05, "INCLINATION": 53.156, "RA_OF_ASC_NODE": 32.7475, "ARG_OF_PERICENTER": 91.2768, "MEAN_ANOMALY": 55.8222, "EPHEMERIS_TYPE": 0, "CLASSIFICATION_TYPE": "U", "NORAD_CAT_ID": 66950, "ELEMENT_SET_NO": 999, "REV_AT_EPOCH": 255, "BSTAR": -0.0050578886, "MEAN_MOTION_DOT": -0.01365678, "MEAN_MOTION_DDOT": 0}, "tle": {"line1": "1 66950U 25286AB  25350.25003472 -.01365678  00000+0 -50579-2 0  9992", "line2": "2 66950  53.1560  32.7475 0000870  91.2768  55.8222 15.90021950  2552"}}, "geometry": {"type": "Point", "coordinates": [45.56860475327191, 20.793306496268425]}}, {"type": "Feature", "properties": {"norad_id": 66951, "name": "STARLINK-35999", "group": "last-30-days", "lat": 22.482550085920153, "lon": 47.09979629422976, "alt_km": 305.5317760035741, "timestamp": "2025-12-16T23:36:34.926031+00:00", "meta": {"OBJECT_NAME": "STARLINK-35999", "OBJECT_ID": "2025-286AC", "EPOCH": "2025-12-16T06:00:02.999808", "MEAN_MOTION": 15.90072189, "ECCENTRICITY": 9.103e-05, "INCLINATION": 53.1561, "RA_OF_ASC_NODE": 32.7432, "ARG_OF_PERICENTER": 89.253, "MEAN_ANOMALY": 59.9458, "EPHEMERIS_TYPE": 0, "CLASSIFICATION_TYPE": "U", "NORAD_CAT_ID": 66951, "ELEMENT_SET_NO": 999, "REV_AT_EPOCH": 255, "BSTAR": -0.0050863798, "MEAN_MOTION_DOT": -0.01375553, "MEAN_MOTION_DDOT": 0}, "tle": {"line1": "1 66951U 25286AC  25350.25003472 -.01375553  00000+0 -50864-2 0  9993", "line2": "2 66951  53.1561  32.7432 0000910  89.2530  59.9458 15.90072189  2552"}}, "geometry": {"type": "Point", "coordinates": [47.09979629422976, 22.482550085920153]}}, {"type": "Feature", "properties": {"norad_id": 66952, "name": "STARLINK-36122", "group": "last-30-days", "lat": 19.214363594614845, "lon": 44.17907485426741, "alt_km": 306.2389264396397, "timestamp": "2025-12-16T23:36:34.926041+00:00", "meta": {"OBJECT_NAME": "STARLINK-36122", "OBJECT_ID": "2025-286AD", "EPOCH": "2025-12-16T06:00:02.999808", "MEAN_MOTION": 15.89976891, "ECCENTRICITY": 9.228e-05, "INCLINATION": 53.1561, "RA_OF_ASC_NODE": 32.7518, "ARG_OF_PERICENTER": 83.7216, "MEAN_ANOMALY": 61.4364, "EPHEMERIS_TYPE": 0, "CLASSIFICATION_TYPE": "U", "NORAD_CAT_ID": 66952, "ELEMENT_SET_NO": 999, "REV_AT_EPOCH": 255, "BSTAR": -0.005050219, "MEAN_MOTION_DOT": -0.0136113, "MEAN_MOTION_DDOT": 0}, "tle": {"line1": "1 66952U 25286AD  25350.25003472 -.01361130  00000+0 -50502-2 0  9999", "line2": "2 66952  53.1561  32.7518 0000922  83.7216  61.4364 15.89976891  2556"}}, "geometry": {"type": "Point", "coordinates": [44.17907485426741, 19.214363594614845]}}, {"type": "Feature", "properties": {"norad_id": 66953, "name": "HULIANWANG DIGUI-114", "group": "last-30-days", "lat": -30.445304619439945, "lon": 166.67173020426932, "alt_km": 1004.0828246471738, "timestamp": "2025-12-16T23:36:34.926055+00:00", "meta": {"OBJECT_NAME": "HULIANWANG DIGUI-114", "OBJECT_ID": "2025-287A", "EPOCH": "2025-12-15T20:15:59.937408", "MEAN_MOTION": 13.68689195, "ECCENTRICITY": 0.00087999, "INCLINATION": 86.496, "RA_OF_ASC_NODE": 345.0232, "ARG_OF_PERICENTER": 195.8466, "MEAN_ANOMALY": 164.2419, "EPHEMERIS_TYPE": 0, "CLASSIFICATION_TYPE": "U", "NORAD_CAT_ID": 66953, "ELEMENT_SET_NO": 999, "REV_AT_EPOCH": 95, "BSTAR": 2.5636052e-05, "MEAN_MOTION_DOT": 3.9e-07, "MEAN_MOTION_DDOT": 0}, "tle": {"line1": "1 66953U 25287A   25349.84444372  .00000039  00000+0  25636-4 0  9999", "line2": "2 66953  86.4960 345.0232 0008799 195.8466 164.2419 13.68689195   952"}}, "geometry": {"type": "Point", "coordinates": [166.67173020426932, -30.445304619439945]}}, {"type": "Feature", "properties": {"norad_id": 66954, "name": "HULIANWANG DIGUI-115", "group": "last-30-days", "lat": -33.37447809539893, "lon": 166.92421071221148, "alt_km": 1004.0825864576818, "timestamp": "2025-12-16T23:36:34.926066+00:00", "meta": {"OBJECT_NAME": "HULIANWANG DIGUI-115", "OBJECT_ID": "2025-287B", "EPOCH": "2025-12-15T06:13:08.738688", "MEAN_MOTION": 13.6879189, "ECCENTRICITY": 0.0008784, "INCLINATION": 86.4971, "RA_OF_ASC_NODE": 345.2403, "ARG_OF_PERICENTER": 196.1208, "MEAN_ANOMALY": 163.9673, "EPHEMERIS_TYPE": 0, "CLASSIFICATION_TYPE": "U", "NORAD_CAT_ID": 66954, "ELEMENT_SET_NO": 999, "REV_AT_EPOCH": 87, "BSTAR": 2.6102444e-05, "MEAN_MOTION_DOT": 3.9e-07, "MEAN_MOTION_DDOT": 0}, "tle": {"line1": "1 66954U 25287B   25349.25912892  .00000039  00000+0  26102-4 0  9991", "line2": "2 66954  86.4971 345.2403 0008784 196.1208 163.9673 13.68791890   874"}}, "geometry": {"type": "Point", "coordinates": [166.92421071221148, -33.37447809539893]}}, {"type": "Feature", "properties": {"norad_id": 66955, "name": "HULIANWANG DIGUI-116", "group": "last-30-days", "lat": -36.60858312702406, "lon": 167.21339197391478, "alt_km": 1004.7654623795042, "timestamp": "2025-12-16T23:36:34.926077+00:00", "meta": {"OBJECT_NAME": "HULIANWANG DIGUI-116", "OBJECT_ID": "2025-287C", "EPOCH": "2025-12-14T02:08:18.133728", "MEAN_MOTION": 13.68903211, "ECCENTRICITY": 0.00080818, "INCLINATION": 86.4907, "RA_OF_ASC_NODE": 345.6576, "ARG_OF_PERICENTER": 193.9217, "MEAN_ANOMALY": 166.172, "EPHEMERIS_TYPE": 0, "CLASSIFICATION_TYPE": "U", "NORAD_CAT_ID": 66955, "ELEMENT_SET_NO": 999, "REV_AT_EPOCH": 71, "BSTAR": 2.5654516e-05, "MEAN_MOTION_DOT": 3.9e-07, "MEAN_MOTION_DDOT": 0}, "tle": {"line1": "1 66955U 25287C   25348.08909877  .00000039  00000+0  25655-4 0  9993", "line2": "2 66955  86.4907 345.6576 0008081 193.9217 166.1720 13.68903211   717"}}, "geometry": {"type": "Point", "coordinates": [167.21339197391478, -36.60858312702406]}}]}